OBJECT_NAME,OBJECT_ID,EPOCH,MEAN_MOTION,ECCENTRICITY,INCLINATION,RA_OF_ASC_NODE,ARG_OF_PERICENTER,MEAN_ANOMALY,EPHEMERIS_TYPE,CLASSIFICATION_TYPE,NORAD_CAT_ID,ELEMENT_SET_NO,REV_AT_EPOCH,BSTAR,MEAN_MOTION_DOT,MEAN_MOTION_DDOT
ONEWEB-0309,2021-075W,2026-07-01T21:31:04.893024,13.17649550,.00022562,87.9135,2.9361,98.4653,261.6734,0,U,49095,999,23551,-.43307789E-4,-.4E-7,0
ONEWEB-0310,2021-075X,2026-07-01T22:47:06.590112,13.12442479,.00018399,87.8950,347.7436,94.3400,265.7939,0,U,49096,999,23712,-.12410883E-2,-.434E-5,0
ONEWEB-0311,2021-075Y,2026-07-01T21:40:46.873056,13.17651322,.00020271,87.9134,2.9348,77.7240,282.4119,0,U,49097,999,23556,-.15241126E-4,.7E-7,0
ONEWEB-0312,2021-075Z,2026-07-01T22:02:39.662304,13.17648330,.00021884,87.9134,2.9421,87.5106,272.6276,0,U,49098,999,23554,-.77517689E-4,-.17E-6,0
ONEWEB-0313,2021-075AA,2026-07-01T22:09:45.666144,13.17649413,.00019283,87.9132,2.9466,86.6562,273.4791,0,U,49099,999,23553,-.25787183E-4,.3E-7,0
ONEWEB-0314,2021-075AB,2026-07-01T21:21:22.015296,13.17650498,.00022071,87.9145,2.9275,85.8546,274.2838,0,U,49100,999,23550,.12095893E-3,.6E-6,0
ONEWEB-0315,2021-075AC,2026-07-01T22:08:04.863264,13.12440830,.00018375,87.8955,347.7141,80.9114,279.2222,0,U,49101,999,23710,.59287731E-3,.226E-5,0
ONEWEB-0316,2021-075AD,2026-07-01T22:54:48.706560,13.18682202,.00018745,87.9180,332.5181,95.9440,264.1906,0,U,49102,999,23915,.18733032E-2,.751E-5,0
ONEWEB-0317,2021-075AE,2026-07-01T22:12:57.569184,13.12440510,.0002105,87.8956,347.7375,113.5993,246.5357,0,U,49103,999,23712,.26732668E-3,.109E-5,0
ONEWEB-0318,2021-075AF,2026-07-01T22:49:57.535968,13.18685870,.00018767,87.9182,332.5207,89.4795,270.6552,0,U,49104,999,23911,-.12523937E-4,.8E-7,0
ONEWEB-0319,2021-075AG,2026-07-01T21:43:13.341792,13.17650266,.0001849,87.9133,2.9394,73.5963,286.5371,0,U,49105,999,23554,-.58307956E-4,-.1E-6,0
ONEWEB-0323,2021-075AH,2026-07-01T21:46:07.932864,13.12442337,.00019998,87.8959,347.7223,77.4451,282.6901,0,U,49106,999,23648,.12084226E-2,.447E-5,0
ONEWEB-0329,2021-075AJ,2026-07-01T21:55:22.655424,13.17649736,.00020118,87.9133,2.9387,87.8179,272.3183,0,U,49107,999,23552,.47133549E-4,.31E-6,0
ONEWEB-0330,2021-075AK,2026-07-01T22:08:15.914688,13.19183924,.00021328,87.9138,2.9508,91.1550,268.9827,0,U,49108,999,23556,.94773968E-4,.51E-6,0
ONEWEB-0292,2021-083A,2026-07-01T18:59:58.356960,13.13469766,.00018436,87.8967,317.3306,94.2192,265.9148,0,U,49186,999,23284,-.76646417E-3,-.267E-5,0
ONEWEB-0303,2021-083B,2026-07-01T22:45:05.366592,13.18687399,.0001848,87.9181,332.5197,90.0153,270.1191,0,U,49187,999,23192,-.24717971E-4,.3E-7,0
ONEWEB-0306,2021-083C,2026-07-01T22:30:30.655584,13.18687147,.00019102,87.9187,332.5103,102.2140,257.9206,0,U,49188,999,23196,-.22792971E-3,-.77E-6,0
ONEWEB-0307,2021-083D,2026-07-01T22:30:50.061888,13.13470527,.00019286,87.8971,317.2992,94.9561,265.1788,0,U,49189,999,23286,-.92085606E-3,-.324E-5,0
ONEWEB-0320,2021-083E,2026-07-01T21:10:23.954016,13.18687037,.00018489,87.9174,332.5378,96.6632,263.4711,0,U,49190,999,23191,.21135075E-4,.21E-6,0
ONEWEB-0321,2021-083F,2026-07-01T07:00:11.440512,13.20773246,.00020809,87.9193,271.6242,108.0184,252.1177,0,U,49191,999,23869,.12328869E-3,.63E-6,0
ONEWEB-0322,2021-083G,2026-07-01T22:24:45.052128,13.13470163,.00017077,87.8965,317.2994,111.4652,248.6659,0,U,49192,999,23285,-.93819476E-3,-.33E-5,0
ONEWEB-0324,2021-083H,2026-07-01T22:20:49.598304,13.18685511,.00020414,87.9187,332.5172,96.8032,263.3333,0,U,49193,999,23194,-.140272E-6,.13E-6,0
ONEWEB-0325,2021-083J,2026-07-01T20:36:24.961536,13.18686367,.00017761,87.9176,332.5385,95.4454,264.6881,0,U,49194,999,23194,-.4978286E-4,-.7E-7,0
ONEWEB-0326,2021-083K,2026-07-01T22:47:44.627712,13.18685548,.00017806,87.9185,332.5193,86.2890,273.8446,0,U,49195,999,23194,.20138306E-4,.21E-6,0
ONEWEB-0327,2021-083L,2026-07-01T22:47:20.371776,13.18685810,.00016222,87.9176,332.5224,83.8912,276.2404,0,U,49196,999,23196,.42526402E-4,.3E-6,0
ONEWEB-0328,2021-083M,2026-07-01T22:10:07.231584,13.13468141,.00019774,87.8979,317.2754,97.1785,262.9569,0,U,49197,999,23283,-.62231611E-3,-.214E-5,0
ONEWEB-0331,2021-083N,2026-07-01T22:37:47.685792,13.18687081,.00018776,87.9184,332.5146,85.4383,274.6964,0,U,49198,999,23195,-.13703964E-3,-.41E-6,0
ONEWEB-0333,2021-083P,2026-07-01T22:02:48.463008,13.13468568,.00018281,87.8969,317.3022,98.3989,261.7348,0,U,49199,999,23284,-.22633211E-3,-.7E-6,0
ONEWEB-0334,2021-083Q,2026-07-01T07:20:46.963968,13.20774550,.00019379,87.9189,271.6315,123.4000,236.7319,0,U,49200,999,23865,.10138457E-3,.54E-6,0
ONEWEB-0335,2021-083R,2026-07-01T21:55:28.988544,13.13470522,.00019153,87.8969,317.3002,92.6205,267.5144,0,U,49201,999,23285,.56889891E-3,.221E-5,0
