ONEWEB-0309             
1 49095U 21075W   26182.89658441 -.00000004  00000+0 -43308-4 0  9993
2 49095  87.9135   2.9361 0002256  98.4653 261.6734 13.17649550235519
ONEWEB-0310             
1 49096U 21075X   26182.94938183 -.00000434  00000+0 -12411-2 0  9990
2 49096  87.8950 347.7436 0001839  94.3400 265.7939 13.12442479237125
ONEWEB-0311             
1 49097U 21075Y   26182.90332029  .00000007  00000+0 -15241-4 0  9995
2 49097  87.9134   2.9348 0002027  77.7240 282.4119 13.17651322235566
ONEWEB-0312             
1 49098U 21075Z   26182.91851461 -.00000017  00000+0 -77518-4 0  9990
2 49098  87.9134   2.9421 0002188  87.5106 272.6276 13.17648330235545
ONEWEB-0313             
1 49099U 21075AA  26182.92344521  .00000003  00000+0 -25787-4 0  9991
2 49099  87.9132   2.9466 0001928  86.6562 273.4791 13.17649413235533
ONEWEB-0314             
1 49100U 21075AB  26182.88983814  .00000060  00000+0  12096-3 0  9993
2 49100  87.9145   2.9275 0002207  85.8546 274.2838 13.17650498235505
ONEWEB-0315             
1 49101U 21075AC  26182.92227851  .00000226  00000+0  59288-3 0  9999
2 49101  87.8955 347.7141 0001837  80.9114 279.2222 13.12440830237103
ONEWEB-0316             
1 49102U 21075AD  26182.95473040  .00000751  00000+0  18733-2 0  9998
2 49102  87.9180 332.5181 0001874  95.9440 264.1906 13.18682202239156
ONEWEB-0317             
1 49103U 21075AE  26182.92566631  .00000109  00000+0  26733-3 0  9992
2 49103  87.8956 347.7375 0002105 113.5993 246.5357 13.12440510237125
ONEWEB-0318             
1 49104U 21075AF  26182.95136037  .00000008  00000+0 -12524-4 0  9992
2 49104  87.9182 332.5207 0001876  89.4795 270.6552 13.18685870239111
ONEWEB-0319             
1 49105U 21075AG  26182.90501553 -.00000010  00000+0 -58308-4 0  9991
2 49105  87.9133   2.9394 0001849  73.5963 286.5371 13.17650266235542
ONEWEB-0323             
1 49106U 21075AH  26182.90703626  .00000447  00000+0  12084-2 0  9998
2 49106  87.8959 347.7223 0001999  77.4451 282.6901 13.12442337236483
ONEWEB-0329             
1 49107U 21075AJ  26182.91345666  .00000031  00000+0  47134-4 0  9991
2 49107  87.9133   2.9387 0002011  87.8179 272.3183 13.17649736235527
ONEWEB-0330             
1 49108U 21075AK  26182.92240642  .00000051  00000+0  94774-4 0  9995
2 49108  87.9138   2.9508 0002132  91.1550 268.9827 13.19183924235567
ONEWEB-0292             
1 49186U 21083A   26182.79164765 -.00000267  00000+0 -76646-3 0  9994
2 49186  87.8967 317.3306 0001843  94.2192 265.9148 13.13469766232841
ONEWEB-0303             
1 49187U 21083B   26182.94797878  .00000003  00000+0 -24718-4 0  9990
2 49187  87.9181 332.5197 0001848  90.0153 270.1191 13.18687399231927
ONEWEB-0306             
1 49188U 21083C   26182.93785481 -.00000077  00000+0 -22793-3 0  9999
2 49188  87.9187 332.5103 0001910 102.2140 257.9206 13.18687147231968
ONEWEB-0307             
1 49189U 21083D   26182.93807942 -.00000324  00000+0 -92086-3 0  9994
2 49189  87.8971 317.2992 0001928  94.9561 265.1788 13.13470527232861
ONEWEB-0320             
1 49190U 21083E   26182.88222169  .00000021  00000+0  21135-4 0  9992
2 49190  87.9174 332.5378 0001848  96.6632 263.4711 13.18687037231919
ONEWEB-0321             
1 49191U 21083F   26182.29179908  .00000063  00000+0  12329-3 0  9990
2 49191  87.9193 271.6242 0002080 108.0184 252.1177 13.20773246238697
ONEWEB-0322             
1 49192U 21083G   26182.93385477 -.00000330  00000+0 -93819-3 0  9994
2 49192  87.8965 317.2994 0001707 111.4652 248.6659 13.13470163232859
ONEWEB-0324             
1 49193U 21083H   26182.93112961  .00000013  00000+0 -14027-6 0  9995
2 49193  87.9187 332.5172 0002041  96.8032 263.3333 13.18685511231947
ONEWEB-0325             
1 49194U 21083J   26182.85862224 -.00000007  00000+0 -49783-4 0  9990
2 49194  87.9176 332.5385 0001776  95.4454 264.6881 13.18686367231941
ONEWEB-0326             
1 49195U 21083K   26182.94982208  .00000021  00000+0  20138-4 0  9993
2 49195  87.9185 332.5193 0001780  86.2890 273.8446 13.18685548231945
ONEWEB-0327             
1 49196U 21083L   26182.94954134  .00000030  00000+0  42526-4 0  9996
2 49196  87.9176 332.5224 0001622  83.8912 276.2404 13.18685810231969
ONEWEB-0328             
1 49197U 21083M   26182.92369481 -.00000214  00000+0 -62232-3 0  9991
2 49197  87.8979 317.2754 0001977  97.1785 262.9569 13.13468141232839
ONEWEB-0331             
1 49198U 21083N   26182.94291303 -.00000041  00000+0 -13704-3 0  9999
2 49198  87.9184 332.5146 0001877  85.4383 274.6964 13.18687081231959
ONEWEB-0333             
1 49199U 21083P   26182.91861647 -.00000070  00000+0 -22633-3 0  9994
2 49199  87.8969 317.3022 0001828  98.3989 261.7348 13.13468568232849
ONEWEB-0334             
1 49200U 21083Q   26182.30609912  .00000054  00000+0  10138-3 0  9992
2 49200  87.9189 271.6315 0001937 123.4000 236.7319 13.20774550238653
ONEWEB-0335             
1 49201U 21083R   26182.91352996  .00000221  00000+0  56890-3 0  9998
2 49201  87.8969 317.3002 0001915  92.6205 267.5144 13.13470522232858
